{
	"type": "FeatureCollection",
	"source": "OpenStreetMap contributors via Overpass API (ODbL)",
	"generated": "2026-05-04T07:20:08.738Z",
	"features": [
		{
			"type": "Feature",
			"properties": {
				"slug": "anneau-bleu",
				"title": "Anneau Bleu",
				"osmRelation": 7184679,
				"lengthKm": 30.7
			},
			"geometry": {
				"type": "MultiLineString",
				"coordinates": [
					[
						[4.8954423, 45.7844375],
						[4.8954321, 45.7844462],
						[4.895412, 45.7844532],
						[4.8953837, 45.7844482],
						[4.8952471, 45.7843839],
						[4.8950923, 45.7843389],
						[4.8950656, 45.7843563],
						[4.8950511, 45.7843658]
					],
					[
						[4.9934091, 45.795391],
						[4.9922181, 45.7956145],
						[4.9921517, 45.7956282],
						[4.9919799, 45.7956637],
						[4.9918673, 45.7956787],
						[4.9917412, 45.7956899],
						[4.9916071, 45.7956992],
						[4.991473, 45.795703],
						[4.9909852, 45.7956726],
						[4.9908501, 45.7956643]
					],
					[
						[4.8920857, 45.7839813],
						[4.8919623, 45.7840412],
						[4.8919098, 45.7840857],
						[4.8917622, 45.78427],
						[4.8917258, 45.7842871],
						[4.891705, 45.7842893],
						[4.8916778, 45.7842933],
						[4.8916541, 45.7842855],
						[4.8916272, 45.784272],
						[4.8916183, 45.784257],
						[4.8916099, 45.7842312],
						[4.8916128, 45.7842161],
						[4.891807, 45.7839871],
						[4.8918782, 45.7839032]
					],
					[
						[4.8925068, 45.7844623],
						[4.8924257, 45.7844518],
						[4.8921942, 45.784481],
						[4.892161, 45.784445],
						[4.8921256, 45.7843905],
						[4.8921422, 45.7843308],
						[4.8922474, 45.7842061],
						[4.8922566, 45.7841778],
						[4.8922495, 45.7841545],
						[4.8922206, 45.7841251],
						[4.8921932, 45.7840959],
						[4.8920857, 45.7839813]
					],
					[
						[4.892563, 45.7835654],
						[4.8930273, 45.7836442],
						[4.8942945, 45.7839617]
					],
					[
						[4.8920805, 45.783708],
						[4.8921675, 45.7836321],
						[4.8922198, 45.7836035],
						[4.8922806, 45.7835844],
						[4.8924194, 45.7835682],
						[4.892563, 45.7835654]
					],
					[
						[4.8918782, 45.7839032],
						[4.8920805, 45.783708]
					],
					[
						[4.9934091, 45.795391],
						[4.9935393, 45.7953658],
						[4.9937187, 45.7953082]
					],
					[
						[4.9893788, 45.7875876],
						[4.9893392, 45.7875999],
						[4.9893171, 45.7876285],
						[4.9892743, 45.7876938],
						[4.9892549, 45.7877652],
						[4.9892616, 45.7879937],
						[4.9891949, 45.7884306]
					],
					[
						[4.9897745, 45.7868084],
						[4.9902789, 45.7861814],
						[4.9903178, 45.7861237],
						[4.9904502, 45.7856733],
						[4.9905332, 45.7854264],
						[4.9905748, 45.7853003],
						[4.9906205, 45.7851417],
						[4.990626, 45.7849512],
						[4.9906079, 45.7847539],
						[4.9904845, 45.7844354],
						[4.9903501, 45.7842018],
						[4.9902702, 45.7839484],
						[4.989991, 45.7835151],
						[4.9898347, 45.7833128],
						[4.9896781, 45.7831398]
					],
					[
						[4.8926422, 45.7842741],
						[4.8930377, 45.7833591],
						[4.8931874, 45.783041],
						[4.8932356, 45.7829673],
						[4.8933392, 45.7827261],
						[4.8933518, 45.7826865],
						[4.8933909, 45.7826499],
						[4.8934524, 45.7825098],
						[4.8936796, 45.7821142],
						[4.8940162, 45.7814771],
						[4.8942845, 45.7810227],
						[4.8944347, 45.7807861],
						[4.8945758, 45.7805863],
						[4.8948406, 45.7802414],
						[4.8951538, 45.7798516],
						[4.8959957, 45.7787773],
						[4.8964387, 45.7782334],
						[4.9027159, 45.7705358],
						[4.9031834, 45.7699789],
						[4.9037461, 45.7694285],
						[4.9039768, 45.7692276],
						[4.9043064, 45.7690538]
					],
					[
						[4.9075982, 45.7689905],
						[4.9072214, 45.7690132],
						[4.9067577, 45.7691024],
						[4.9063499, 45.7692176],
						[4.9060419, 45.7693079],
						[4.9058061, 45.7693893],
						[4.9055658, 45.7695106],
						[4.9051491, 45.7697515],
						[4.9048317, 45.7699518],
						[4.9045026, 45.7702553],
						[4.904284, 45.7705324]
					],
					[
						[4.9520078, 45.7754662],
						[4.9525342, 45.7756771],
						[4.9526916, 45.7757084],
						[4.9531163, 45.7757311],
						[4.9533245, 45.7758213],
						[4.9536018, 45.7760905],
						[4.9537507, 45.7761715],
						[4.9540962, 45.7763196],
						[4.954139, 45.7763587],
						[4.9541933, 45.7764211]
					],
					[
						[4.9181633, 45.7669779],
						[4.918071, 45.7669682],
						[4.9177186, 45.7669313],
						[4.9172116, 45.7668782]
					],
					[
						[4.935968, 45.7706002],
						[4.9361408, 45.7706518],
						[4.9363452, 45.7706977],
						[4.9365741, 45.7707734],
						[4.9367531, 45.7708615],
						[4.9370284, 45.770987],
						[4.9374396, 45.7711737],
						[4.9379375, 45.7714146],
						[4.9389321, 45.7719063],
						[4.9401242, 45.7724729],
						[4.9410762, 45.7729397],
						[4.9422709, 45.7734969],
						[4.942425, 45.7735506],
						[4.9429009, 45.7737162],
						[4.9432156, 45.7737708],
						[4.9433946, 45.7737964],
						[4.9435652, 45.7738146],
						[4.9437502, 45.7738136],
						[4.9440318, 45.7737898],
						[4.9445717, 45.7736656],
						[4.9451791, 45.7735281],
						[4.9460466, 45.7733644],
						[4.9464063, 45.7733104],
						[4.9470374, 45.7732379],
						[4.9479178, 45.7732023],
						[4.9487713, 45.7731885],
						[4.9489015, 45.7732026],
						[4.9501574, 45.7734328],
						[4.9505834, 45.7735229],
						[4.950897, 45.7735838],
						[4.9512875, 45.7736772],
						[4.9523107, 45.7740402],
						[4.9531267, 45.7743541]
					],
					[
						[4.9757224, 45.7777605],
						[4.9762727, 45.7779346],
						[4.9768036, 45.7781598],
						[4.9773114, 45.7784796],
						[4.977888, 45.7788346],
						[4.9781762, 45.7790308],
						[4.9783214, 45.7791096],
						[4.9785684, 45.779179],
						[4.9789093, 45.7792241],
						[4.9796246, 45.7792505],
						[4.9798698, 45.7792503],
						[4.9801039, 45.7791971],
						[4.9803802, 45.7791415],
						[4.9807124, 45.7790746]
					],
					[
						[4.935968, 45.7706002],
						[4.9358815, 45.7705677],
						[4.9358222, 45.7705424],
						[4.9357415, 45.770516],
						[4.9356182, 45.7705257],
						[4.9354547, 45.7705133],
						[4.9352815, 45.7704712],
						[4.9351625, 45.7704581],
						[4.9350643, 45.7704237],
						[4.9347676, 45.7703125],
						[4.9344442, 45.7701666],
						[4.933917, 45.7698897],
						[4.9335357, 45.7696153],
						[4.9334575, 45.7695737],
						[4.9331057, 45.7695197],
						[4.9328363, 45.7694803],
						[4.932298, 45.769481],
						[4.9321795, 45.7694811],
						[4.9320327, 45.7694662],
						[4.9319024, 45.7694437],
						[4.9317786, 45.769433],
						[4.9314892, 45.7694582],
						[4.9312022, 45.7694349],
						[4.9304387, 45.7693168],
						[4.9296013, 45.7691933],
						[4.9295531, 45.7691862],
						[4.92952, 45.76918],
						[4.9277604, 45.7688499],
						[4.9262657, 45.7686705],
						[4.9255548, 45.7685805],
						[4.9245211, 45.768394],
						[4.923988, 45.7682542],
						[4.923311, 45.7680082],
						[4.9221167, 45.7677032],
						[4.9211952, 45.7674572],
						[4.920079, 45.7672282],
						[4.9198556, 45.7671989],
						[4.9182736, 45.7669928]
					],
					[
						[4.9807124, 45.7790746],
						[4.9808883, 45.779119],
						[4.981411, 45.7791109]
					],
					[
						[4.9880698, 45.781862],
						[4.9883174, 45.7822753],
						[4.9884071, 45.7824277],
						[4.9886941, 45.7827239],
						[4.9887448, 45.7827762],
						[4.9888758, 45.7828781],
						[4.9891591, 45.7831883]
					],
					[
						[4.9912721, 45.7933742],
						[4.9913221, 45.7936617],
						[4.991341, 45.7937709],
						[4.9913577, 45.7938193]
					],
					[
						[4.8950511, 45.7843658],
						[4.8948669, 45.7843114],
						[4.8943272, 45.784152],
						[4.8942442, 45.784133],
						[4.8942157, 45.7841265]
					],
					[
						[5.0390183, 45.7987577],
						[5.0400052, 45.7982519]
					],
					[
						[4.9098066, 45.7688628],
						[4.9100722, 45.7688578]
					],
					[
						[4.910422, 45.7688452],
						[4.9111969, 45.7688173],
						[4.9122291, 45.7688131],
						[4.9124483, 45.7688237],
						[4.9138494, 45.7688913],
						[4.9150923, 45.7690371],
						[4.9157087, 45.7690976],
						[4.916019, 45.7690941],
						[4.9165383, 45.7691577],
						[4.9189007, 45.7692161],
						[4.9196748, 45.7692352],
						[4.9209104, 45.7693209],
						[4.9221516, 45.7694327],
						[4.9267328, 45.7701673],
						[4.9315652, 45.7709878],
						[4.9322457, 45.7711008],
						[4.9323575, 45.7711263],
						[4.9337638, 45.7714474],
						[4.934049, 45.7714939],
						[4.9343988, 45.7715768],
						[4.9346359, 45.7715892],
						[4.9349588, 45.7715936],
						[4.9350265, 45.7715986]
					],
					[
						[4.9126026, 45.766644],
						[4.9131325, 45.766758],
						[4.9139297, 45.7667347],
						[4.9157757, 45.7667774],
						[4.9160639, 45.7667895],
						[4.9164221, 45.7668045],
						[4.9172116, 45.7668782]
					],
					[
						[4.8948956, 45.7826647],
						[4.8949235, 45.7826154],
						[4.8951019, 45.7822962],
						[4.8951465, 45.7822164],
						[4.8954171, 45.7817273],
						[4.8955157, 45.7815683],
						[4.8956348, 45.7813835],
						[4.8957842, 45.7811746],
						[4.8962473, 45.7805226],
						[4.8966261, 45.7800365],
						[4.8970169, 45.7795655],
						[4.8974863, 45.7789997],
						[4.897914, 45.7784828]
					],
					[
						[4.8995628, 45.7765341],
						[4.8996358, 45.7764471],
						[4.9000805, 45.7758933],
						[4.9006042, 45.7752615],
						[4.9009085, 45.7748902],
						[4.9010044, 45.7747677],
						[4.9019554, 45.7736128],
						[4.9024209, 45.7730293],
						[4.9024687, 45.7729708]
					],
					[
						[5.0261057, 45.7892357],
						[5.0258723, 45.7891662],
						[5.0255174, 45.7890665],
						[5.025345, 45.7889781],
						[5.025148, 45.7888458],
						[5.0237464, 45.7881234],
						[5.0234891, 45.7879728],
						[5.0232411, 45.7878023],
						[5.0226566, 45.7872738],
						[5.0225041, 45.7871387],
						[5.0221322, 45.7866931],
						[5.0214036, 45.7862778],
						[5.0203423, 45.7858171],
						[5.0185867, 45.7853398],
						[5.0172878, 45.7852689],
						[5.0162407, 45.7853136],
						[5.0154093, 45.7854462],
						[5.015012, 45.7855397],
						[5.0146153, 45.7856578],
						[5.0136658, 45.7859945],
						[5.0132837, 45.7861157],
						[5.012904, 45.7862223],
						[5.0125142, 45.7863403],
						[5.0123225, 45.7863849],
						[5.0121316, 45.7864172],
						[5.0113905, 45.7864957],
						[5.0112, 45.7865082]
					],
					[
						[4.9902183, 45.7919849],
						[4.9901876, 45.7919616],
						[4.9900305, 45.7918191],
						[4.9898976, 45.7914275],
						[4.9897576, 45.791021],
						[4.9895892, 45.7905891],
						[4.9894465, 45.7902355],
						[4.9894027, 45.7898736],
						[4.9893745, 45.7896898],
						[4.9892303, 45.7892901],
						[4.9891355, 45.7886465]
					],
					[
						[4.9913577, 45.7938193],
						[4.9914488, 45.793924],
						[4.9914921, 45.7940677],
						[4.9915081, 45.7941658],
						[4.9914917, 45.7942831],
						[4.991445, 45.7943894],
						[4.9914407, 45.7944775],
						[4.9914696, 45.7945323],
						[4.9915271, 45.794575],
						[4.9916417, 45.7946367]
					],
					[
						[5.0263438, 45.7893911],
						[5.0263621, 45.7895105],
						[5.0263566, 45.7896588],
						[5.0263955, 45.7897504],
						[5.0265649, 45.7899748],
						[5.0280382, 45.7914798],
						[5.0290954, 45.7925627],
						[5.0294155, 45.7928931],
						[5.0296712, 45.793158],
						[5.0300951, 45.7936489],
						[5.0303428, 45.7938985],
						[5.0306533, 45.7941788],
						[5.0309453, 45.7944689],
						[5.0310999, 45.7945932],
						[5.0314458, 45.794785],
						[5.0317714, 45.7949595],
						[5.0322036, 45.7951256],
						[5.0325517, 45.7952134],
						[5.0328314, 45.7952367],
						[5.0335375, 45.7953385],
						[5.034211, 45.7954028],
						[5.0349643, 45.7955449],
						[5.0358355, 45.7957358],
						[5.0369223, 45.7960296],
						[5.0371658, 45.7961055],
						[5.0373694, 45.7962014],
						[5.0379708, 45.7965036],
						[5.0387055, 45.7968653],
						[5.0387732, 45.7969004],
						[5.0387838, 45.796906],
						[5.0389069, 45.7969698]
					],
					[
						[5.0261057, 45.7892357],
						[5.0262734, 45.7892952],
						[5.0263108, 45.7893377],
						[5.0263438, 45.7893911]
					],
					[
						[5.0109532, 45.7864484],
						[5.0108278, 45.7863654],
						[5.0106889, 45.7862361],
						[5.0105041, 45.786133],
						[5.0102349, 45.7860377],
						[5.0097113, 45.7859231],
						[5.0090137, 45.7858621],
						[5.008532, 45.7858575],
						[5.0077033, 45.78583],
						[5.0067354, 45.7859076],
						[5.0058102, 45.7860239],
						[5.0050592, 45.7861688],
						[5.0040537, 45.7863599],
						[5.0038245, 45.7864135],
						[5.0030208, 45.7866679],
						[5.0021101, 45.7869705],
						[5.0014323, 45.7872684],
						[5.0010389, 45.787474],
						[5.0004858, 45.7877891],
						[5.0000043, 45.7881055],
						[4.9994416, 45.7885708],
						[4.9990976, 45.788948],
						[4.9987899, 45.7893904],
						[4.9985514, 45.7897715],
						[4.9982646, 45.7900485],
						[4.9975981, 45.7905631],
						[4.9974065, 45.7906916],
						[4.9970656, 45.7908254],
						[4.996649, 45.7909936],
						[4.9962299, 45.791241],
						[4.996079, 45.7914159],
						[4.9959985, 45.7916341],
						[4.995647, 45.7921318],
						[4.9954815, 45.7922769],
						[4.9953227, 45.7923794],
						[4.9952026, 45.7925394],
						[4.9950415, 45.7926867],
						[4.9949192, 45.7929214],
						[4.9946771, 45.7932828],
						[4.9942853, 45.7937837],
						[4.9939342, 45.794128],
						[4.9937135, 45.794266],
						[4.9934154, 45.7943964],
						[4.9931221, 45.7944825],
						[4.9926896, 45.7945036],
						[4.9920383, 45.7945997],
						[4.9916417, 45.7946367]
					],
					[
						[5.0109532, 45.7864484],
						[5.0110817, 45.7864972]
					],
					[
						[5.0400355, 45.798235],
						[5.0399646, 45.7981606],
						[5.0397093, 45.7978386],
						[5.0390634, 45.7971582],
						[5.0389069, 45.7969698]
					],
					[
						[5.0243277, 45.7908565],
						[5.0244603, 45.7910287],
						[5.0252111, 45.7917801],
						[5.0258094, 45.7923196],
						[5.0262645, 45.7927209],
						[5.0274857, 45.7936397],
						[5.0286434, 45.7944459],
						[5.0290979, 45.7947485],
						[5.029898, 45.7952814],
						[5.0303844, 45.795566],
						[5.0306674, 45.7957293],
						[5.0313975, 45.7960134],
						[5.0321096, 45.7962383],
						[5.0329208, 45.7964255],
						[5.0345016, 45.7966477],
						[5.0352499, 45.7967641],
						[5.0358965, 45.796932],
						[5.0363412, 45.7970759],
						[5.0367996, 45.7972643],
						[5.0372703, 45.7975165],
						[5.0377061, 45.7977932],
						[5.0379844, 45.7980252],
						[5.0381132, 45.7981325],
						[5.0383762, 45.7984176]
					],
					[
						[4.9887645, 45.795204],
						[4.9885942, 45.7951357],
						[4.9882298, 45.7949902],
						[4.9876904, 45.7947105],
						[4.984612, 45.7927456],
						[4.9844564, 45.792647]
					],
					[
						[4.9891591, 45.7831883],
						[4.9892788, 45.7832848],
						[4.9893245, 45.783311],
						[4.9893639, 45.7833016],
						[4.9894139, 45.7832896],
						[4.9896188, 45.7831793],
						[4.9896781, 45.7831398]
					],
					[
						[4.9867308, 45.7803905],
						[4.9871438, 45.7806831],
						[4.9875861, 45.7810973],
						[4.9877717, 45.781347],
						[4.9880753, 45.7818181],
						[4.9880698, 45.781862]
					],
					[
						[4.9832172, 45.7791134],
						[4.9835087, 45.7791467],
						[4.9838193, 45.7792683],
						[4.9846118, 45.7794619],
						[4.9847783, 45.7794346],
						[4.9849461, 45.7793845],
						[4.9850611, 45.7793906],
						[4.9851345, 45.7794002],
						[4.9851686, 45.7794047]
					],
					[
						[4.9553675, 45.7752093],
						[4.9554646, 45.7752331],
						[4.9558272, 45.7753255],
						[4.9561308, 45.7754364],
						[4.9564084, 45.7755547],
						[4.9566603, 45.7756851],
						[4.9567968, 45.7757968],
						[4.9570253, 45.7758802],
						[4.9572393, 45.7759704],
						[4.9577355, 45.7761856],
						[4.9582258, 45.7763401],
						[4.9586723, 45.7764942],
						[4.9594217, 45.776753],
						[4.9602678, 45.7770914],
						[4.9612383, 45.7775032],
						[4.9621598, 45.7778674],
						[4.96264, 45.7780359],
						[4.9629323, 45.7781404],
						[4.9631931, 45.7782458],
						[4.9633721, 45.7783812],
						[4.9638073, 45.7785853],
						[4.9640089, 45.7786513],
						[4.9642774, 45.7787059],
						[4.9644406, 45.778718],
						[4.9649751, 45.778754],
						[4.9651234, 45.7787593],
						[4.9654407, 45.778766],
						[4.9658621, 45.7787527],
						[4.9664615, 45.7786953],
						[4.967014, 45.7785314],
						[4.9673422, 45.7784347],
						[4.9673831, 45.7784226],
						[4.9675749, 45.7783317],
						[4.9675782, 45.7783305],
						[4.9682368, 45.7782201],
						[4.9692322, 45.7780871],
						[4.9707283, 45.7778797],
						[4.9712664, 45.777802],
						[4.9717921, 45.7776993],
						[4.9720172, 45.7776784],
						[4.9724315, 45.7777249],
						[4.9725015, 45.777723],
						[4.9727917, 45.777708],
						[4.9735646, 45.7775994],
						[4.9738159, 45.7775714],
						[4.9740971, 45.7775868],
						[4.9743858, 45.7776149],
						[4.9748525, 45.7776724],
						[4.9749506, 45.7776868]
					],
					[
						[4.9911129, 45.7938772],
						[4.9909418, 45.7937938],
						[4.9898123, 45.793284],
						[4.9893793, 45.7930842]
					],
					[
						[4.9075982, 45.7689905],
						[4.907815, 45.768944],
						[4.909268, 45.7688833],
						[4.9097302, 45.7688642],
						[4.9098066, 45.7688628]
					],
					[
						[4.9951517, 45.7946882],
						[4.9955097, 45.79445],
						[4.9957164, 45.794306],
						[4.9959095, 45.7941526],
						[4.9960837, 45.7939937],
						[4.9971339, 45.7929389],
						[5.0000462, 45.7900193],
						[5.0011163, 45.7889489],
						[5.0016867, 45.7884915],
						[5.0023146, 45.7881043],
						[5.0029595, 45.7877841],
						[5.003653, 45.7875338],
						[5.0041604, 45.787381],
						[5.0048044, 45.7872262],
						[5.0054226, 45.7871164],
						[5.0058948, 45.7870709],
						[5.0064108, 45.7870405],
						[5.0069788, 45.7870468],
						[5.0075312, 45.7870756],
						[5.00794, 45.7871152],
						[5.0083868, 45.7871855],
						[5.0098773, 45.7874465]
					],
					[
						[4.9937187, 45.7953082],
						[4.9939627, 45.7952264],
						[4.9942292, 45.7951345],
						[4.9944765, 45.7950319],
						[4.9947103, 45.7949265],
						[4.9948331, 45.7948619],
						[4.9949818, 45.7947811]
					],
					[
						[4.9908501, 45.7956643],
						[4.9907201, 45.795656],
						[4.9903439, 45.7956375],
						[4.9902257, 45.7956244],
						[4.9901025, 45.7956039],
						[4.9899736, 45.7955758],
						[4.9898343, 45.7955365],
						[4.9895466, 45.7954539],
						[4.9887645, 45.795204]
					],
					[
						[4.9844564, 45.792647],
						[4.9813391, 45.7906504],
						[4.9812842, 45.7906159],
						[4.9810038, 45.7904367],
						[4.9775911, 45.7882552],
						[4.9754539, 45.7869045],
						[4.9731225, 45.7854072],
						[4.9723999, 45.7849317],
						[4.9720367, 45.784699],
						[4.9708593, 45.7839535],
						[4.9688704, 45.7826933],
						[4.9673297, 45.781866],
						[4.966522, 45.7814937],
						[4.9658418, 45.7811923],
						[4.9636293, 45.7802737],
						[4.9631225, 45.7800264],
						[4.9621584, 45.7796835],
						[4.9617585, 45.7795017],
						[4.9614461, 45.7793683],
						[4.9606736, 45.7790522],
						[4.9594698, 45.7785546],
						[4.9584739, 45.778142],
						[4.9574359, 45.7777267],
						[4.9569262, 45.7775134],
						[4.9562592, 45.7772351],
						[4.9561387, 45.7772109]
					],
					[
						[4.9531267, 45.7743541],
						[4.9531719, 45.7743732],
						[4.9534696, 45.7744938],
						[4.9535418, 45.7745336],
						[4.9538437, 45.7747695],
						[4.9539234, 45.7748306],
						[4.95407, 45.7748894],
						[4.954404, 45.7749533],
						[4.9548106, 45.7750787],
						[4.9550242, 45.7751106],
						[4.9553675, 45.7752093]
					],
					[
						[4.9361768, 45.772271],
						[4.9369592, 45.7725912],
						[4.9376885, 45.7729686]
					],
					[
						[4.9376885, 45.7729686],
						[4.9391766, 45.7738221],
						[4.9398224, 45.7741879],
						[4.9404837, 45.774507],
						[4.9409781, 45.7746515],
						[4.9417056, 45.7748542],
						[4.9425031, 45.7750146],
						[4.9429055, 45.7750687],
						[4.9433148, 45.7750913],
						[4.9437437, 45.7751125],
						[4.9441794, 45.775115],
						[4.944604, 45.7751022],
						[4.9450634, 45.7750597],
						[4.9472473, 45.7747211],
						[4.9475911, 45.7746772],
						[4.9479419, 45.774654],
						[4.9486416, 45.7746396],
						[4.9493044, 45.7746875],
						[4.9499399, 45.774792],
						[4.9502533, 45.7748575],
						[4.9505635, 45.7749451],
						[4.9508055, 45.7750055],
						[4.9511073, 45.7751036]
					],
					[
						[5.0389293, 45.798804],
						[5.0390183, 45.7987577]
					],
					[
						[5.0098773, 45.7874465],
						[5.0101128, 45.7874255],
						[5.0103735, 45.7874337],
						[5.0106602, 45.7874267],
						[5.0108674, 45.787385],
						[5.0109787, 45.7873714],
						[5.0112219, 45.7873644],
						[5.0114154, 45.7873879],
						[5.0116204, 45.787424],
						[5.011774, 45.7874215],
						[5.0121416, 45.7873838],
						[5.0124335, 45.7873564]
					],
					[
						[4.9561387, 45.7772109],
						[4.9552216, 45.7768193],
						[4.954724, 45.7766117],
						[4.9541933, 45.7764211]
					],
					[
						[4.9511073, 45.7751036],
						[4.9513753, 45.7751918],
						[4.951681, 45.7753143],
						[4.9518886, 45.7754092],
						[4.9520078, 45.7754662]
					],
					[
						[4.897914, 45.7784828],
						[4.897967, 45.7784135],
						[4.8980131, 45.7783422],
						[4.898085, 45.7782705],
						[4.8981186, 45.7782269],
						[4.8981746, 45.7781589],
						[4.8982385, 45.7780671],
						[4.8983243, 45.7779811],
						[4.8984161, 45.7778638],
						[4.898465, 45.777826],
						[4.8985137, 45.7777659],
						[4.8985661, 45.7777005]
					],
					[
						[4.9897745, 45.7868084],
						[4.9897618, 45.7868455],
						[4.9897658, 45.7868792],
						[4.9897269, 45.7869381],
						[4.9896867, 45.7870157],
						[4.9896753, 45.7871102]
					],
					[
						[4.9902183, 45.7919849],
						[4.9899646, 45.7921399],
						[4.9899263, 45.7921755],
						[4.9898904, 45.7923207],
						[4.9897726, 45.7924704],
						[4.9897229, 45.7926726],
						[4.9895408, 45.7929016],
						[4.9893793, 45.7930842]
					],
					[
						[4.9911129, 45.7938772],
						[4.9911276, 45.793785],
						[4.9911903, 45.7934491],
						[4.9912195, 45.7934018],
						[4.9912721, 45.7933742]
					],
					[
						[4.9851686, 45.7794047],
						[4.9852182, 45.7795353],
						[4.9852632, 45.779653],
						[4.9855065, 45.7797414],
						[4.9858929, 45.7798355],
						[4.9860454, 45.7799048],
						[4.9867308, 45.7803905]
					],
					[
						[4.981411, 45.7791109],
						[4.982346, 45.7791032],
						[4.9832172, 45.7791134]
					],
					[
						[4.9350265, 45.7715986],
						[4.9352835, 45.7716844]
					],
					[
						[4.9352835, 45.7716844],
						[4.9355269, 45.7719022],
						[4.9356789, 45.7720179],
						[4.935814, 45.772089],
						[4.9359897, 45.7721668],
						[4.9361768, 45.772271]
					],
					[
						[4.9100722, 45.7688578],
						[4.910422, 45.7688452]
					],
					[
						[4.9039064, 45.7712127],
						[4.9039421, 45.7711489],
						[4.9040804, 45.7708873],
						[4.9042524, 45.77061],
						[4.904284, 45.7705324]
					],
					[
						[5.0383762, 45.7984176],
						[5.0385222, 45.798553],
						[5.0385863, 45.7985984],
						[5.0388186, 45.7987288],
						[5.0389293, 45.798804]
					],
					[
						[5.0220521, 45.7887153],
						[5.0229639, 45.7895745],
						[5.0237034, 45.790177],
						[5.0241409, 45.7906139],
						[5.0241822, 45.7906676],
						[5.0243277, 45.7908565]
					],
					[
						[5.0124335, 45.7873564],
						[5.0128226, 45.7872957],
						[5.0134668, 45.7871457],
						[5.0138453, 45.7870329],
						[5.0149414, 45.7867233],
						[5.0153891, 45.7866296],
						[5.0159707, 45.786549],
						[5.0165657, 45.786505],
						[5.0173188, 45.786513],
						[5.0179768, 45.7866007],
						[5.0187665, 45.7867426],
						[5.0193889, 45.7869434],
						[5.0199508, 45.7871686],
						[5.0204464, 45.7874253],
						[5.0208871, 45.787709],
						[5.021043, 45.7878329],
						[5.0214018, 45.7881257],
						[5.0220521, 45.7887153]
					],
					[
						[4.8942945, 45.7839617],
						[4.8946694, 45.7840586],
						[4.8947941, 45.7841012],
						[4.8954381, 45.784399],
						[4.8954555, 45.7844167],
						[4.8954423, 45.7844375]
					],
					[
						[4.9949818, 45.7947811],
						[4.9950282, 45.7947576],
						[4.9951517, 45.7946882]
					],
					[
						[4.9891355, 45.7886465],
						[4.9891949, 45.7884306]
					],
					[
						[4.9896451, 45.7873057],
						[4.989674, 45.7874254],
						[4.9897396, 45.7875393],
						[4.989609, 45.7875573],
						[4.9893788, 45.7875876]
					],
					[
						[4.9896753, 45.7871102],
						[4.9896451, 45.7873057]
					],
					[
						[4.9182736, 45.7669928],
						[4.9181633, 45.7669779]
					],
					[
						[4.910811, 45.7668426],
						[4.9113437, 45.7667703],
						[4.9123764, 45.7666862],
						[4.9126026, 45.766644]
					],
					[
						[4.9043064, 45.7690538],
						[4.9046054, 45.7688693],
						[4.9049269, 45.7687275]
					],
					[
						[4.9049269, 45.7687275],
						[4.9054123, 45.7685092],
						[4.9055964, 45.7684184],
						[4.9060274, 45.7682157],
						[4.9078719, 45.7679147],
						[4.9088845, 45.7675958],
						[4.9095959, 45.7672918],
						[4.9096956, 45.76724],
						[4.9099256, 45.7671207],
						[4.9102823, 45.7669871],
						[4.910811, 45.7668426]
					],
					[
						[4.9749506, 45.7776868],
						[4.9754356, 45.7777873],
						[4.9756131, 45.7777899],
						[4.9757224, 45.7777605]
					],
					[
						[4.8985661, 45.7777005],
						[4.8995628, 45.7765341]
					],
					[
						[4.9024687, 45.7729708],
						[4.9039064, 45.7712127]
					],
					[
						[4.8925068, 45.7844623],
						[4.8926422, 45.7842741]
					],
					[
						[5.0400052, 45.7982519],
						[5.0400355, 45.798235]
					],
					[
						[4.8941616, 45.7841137],
						[4.894161, 45.7840852],
						[4.8941548, 45.7840397],
						[4.8941596, 45.7839898],
						[4.8941821, 45.783907],
						[4.894214, 45.783841],
						[4.8943158, 45.7836521],
						[4.8944311, 45.7834813],
						[4.8944571, 45.7834546],
						[4.8945041, 45.783397],
						[4.8945251, 45.7833631],
						[4.8945479, 45.7833218],
						[4.8945891, 45.7832368],
						[4.8946392, 45.7831336],
						[4.8946893, 45.7830303]
					],
					[
						[4.8942157, 45.7841265],
						[4.8941616, 45.7841137]
					],
					[
						[4.8946893, 45.7830303],
						[4.8948956, 45.7826647]
					],
					[
						[5.0110817, 45.7864972],
						[5.0112, 45.7865082]
					]
				]
			}
		}
	]
}
